{
  "norad_id": 43623,
  "name": "BEIDOU-3 M14",
  "history": [
    {
      "epoch": "2026-03-28T07:42:14.827680",
      "apogee_km": 21547.107534213534,
      "perigee_km": 21509.01557318773,
      "latitude_deg": -53.18694925971141,
      "longitude_deg": 13.116475200280547,
      "semi_major_axis_km": 27906.198553700633,
      "eccentricity": 0.0006825,
      "inclination_deg": 56.5577,
      "raan_deg": 65.3203,
      "arg_perigee_deg": 333.8606,
      "mean_anomaly_deg": 26.0987,
      "mean_motion_rev_day": 1.862309
    }
  ]
}